{
    "links": {
        "self": "http://www.neowsapp.com/rest/v1/neo/3781879?api_key=iIulBulltgU6a56xZRHN4H3l9WmuAYTsLGpBGhQ2"
    },
    "id": "3781879",
    "neo_reference_id": "3781879",
    "name": "(2017 SQ14)",
    "designation": "2017 SQ14",
    "nasa_jpl_url": "http://ssd.jpl.nasa.gov/sbdb.cgi?sstr=3781879",
    "absolute_magnitude_h": 26.7,
    "estimated_diameter": {
        "kilometers": {
            "estimated_diameter_min": 0.0121494041,
            "estimated_diameter_max": 0.0271668934
        },
        "meters": {
            "estimated_diameter_min": 12.14940408,
            "estimated_diameter_max": 27.1668934089
        },
        "miles": {
            "estimated_diameter_min": 0.0075492874,
            "estimated_diameter_max": 0.0168807197
        },
        "feet": {
            "estimated_diameter_min": 39.8602508817,
            "estimated_diameter_max": 89.1302305717
        }
    },
    "is_potentially_hazardous_asteroid": false,
    "close_approach_data": [
        {
            "close_approach_date": "2017-09-28",
            "close_approach_date_full": "2017-Sep-28 07:05",
            "epoch_date_close_approach": 1506582300000,
            "relative_velocity": {
                "kilometers_per_second": "7.5264003487",
                "kilometers_per_hour": "27095.0412554607",
                "miles_per_hour": "16835.8049400944"
            },
            "miss_distance": {
                "astronomical": "0.0357010346",
                "lunar": "13.8877024594",
                "kilometers": "5340798.732956302",
                "miles": "3318618.4462768876"
            },
            "orbiting_body": "Earth"
        },
        {
            "close_approach_date": "2159-09-29",
            "close_approach_date_full": "2159-Sep-29 16:23",
            "epoch_date_close_approach": 5987751780000,
            "relative_velocity": {
                "kilometers_per_second": "7.5392560044",
                "kilometers_per_hour": "27141.3216158184",
                "miles_per_hour": "16864.5617562289"
            },
            "miss_distance": {
                "astronomical": "0.0361293875",
                "lunar": "14.0543317375",
                "kilometers": "5404879.414404625",
                "miles": "3358436.335348825"
            },
            "orbiting_body": "Earth"
        }
    ],
    "orbital_data": {
        "orbit_id": "3",
        "orbit_determination_date": "2017-12-27 06:26:39",
        "first_observation_date": "2017-09-24",
        "last_observation_date": "2017-09-30",
        "data_arc_in_days": 6,
        "observations_used": 33,
        "orbit_uncertainty": "8",
        "minimum_orbit_intersection": ".0356536",
        "jupiter_tisserand_invariant": "4.486",
        "epoch_osculation": "2458022.5",
        "eccentricity": ".3048414540468751",
        "semi_major_axis": "1.491876869766679",
        "inclination": "11.97088115131558",
        "ascending_node_longitude": "185.4082194961549",
        "orbital_period": "665.5763747134222",
        "perihelion_distance": "1.037090955528104",
        "perihelion_argument": "183.5610053881993",
        "aphelion_distance": "1.946662784005254",
        "perihelion_time": "2458028.291281515856",
        "mean_anomaly": "356.8675851113167",
        "mean_motion": ".5408845831629849",
        "equinox": "J2000",
        "orbit_class": {
            "orbit_class_type": "AMO",
            "orbit_class_description": "Near-Earth asteroid orbits similar to that of 1221 Amor",
            "orbit_class_range": "1.017 AU < q (perihelion) < 1.3 AU"
        }
    },
    "is_sentry_object": false
}